ONEWEB-0171             
1 48070U 21025AE  24362.42330326  .00000175  00000+0  44465-3 0  9997
2 48070  87.8922  67.0005 0001722 105.8222 254.3097 13.13468656183158
ONEWEB-0172             
1 48071U 21025AF  24362.47885578  .00000333  00000+0  87612-3 0  9994
2 48071  87.8920  66.9557 0001745 108.2189 251.9130 13.13472237184052
ONEWEB-0174             
1 48072U 21025AG  24362.46138254 -.00000380  00000+0 -10769-2 0  9998
2 48072  87.8918  66.9733 0001882 103.2747 256.8592 13.13469600183373
ONEWEB-0175             
1 48073U 21025AH  24362.48996738  .00000348  00000+0  91827-3 0  9997
2 48073  87.8914  66.9447 0001422 107.4175 252.7109 13.13470563183035
ONEWEB-0177             
1 48074U 21025AJ  24362.42647723  .00000136  00000+0  33698-3 0  9996
2 48074  87.8918  66.9683 0002051 110.7473 249.3876 13.13471759183210
ONEWEB-0178             
1 48075U 21025AK  24362.44406879 -.00000263  00000+0 -75516-3 0  9992
2 48075  87.8921  66.9950 0001925 109.8647 250.2689 13.13471615183262
ONEWEB-0108             
1 48076U 21025AL  24362.48044488  .00000370  00000+0  97757-3 0  9999
2 48076  87.8914  66.9537 0001835  95.5271 264.6068 13.13469517183190
ONEWEB-0169             
1 48077U 21025AM  24362.43599313 -.00000166  00000+0 -48972-3 0  9997
2 48077  87.8917  66.9774 0001854  94.5309 265.6032 13.13468424181847
